[{"OBJECT_NAME":"KUIPER-00040","OBJECT_ID":"2025-134B","EPOCH":"2026-03-09T21:18:32.999616","MEAN_MOTION":14.79929263,"ECCENTRICITY":0.00125524,"INCLINATION":51.8992,"RA_OF_ASC_NODE":243.3551,"ARG_OF_PERICENTER":267.3523,"MEAN_ANOMALY":92.6003,"EPHEMERIS_TYPE":0,"CLASSIFICATION_TYPE":"U","NORAD_CAT_ID":64501,"ELEMENT_SET_NO":999,"REV_AT_EPOCH":3994,"BSTAR":0.00059131021,"MEAN_MOTION_DOT":4.292e-5,"MEAN_MOTION_DDOT":0},{"OBJECT_NAME":"TIROS 1","OBJECT_ID":"1960-002B","EPOCH":"2026-03-09T12:46:13.575648","MEAN_MOTION":14.7862923,"ECCENTRICITY":0.0022498,"INCLINATION":48.3777,"RA_OF_ASC_NODE":138.2054,"ARG_OF_PERICENTER":201.064,"MEAN_ANOMALY":158.9349,"EPHEMERIS_TYPE":0,"CLASSIFICATION_TYPE":"U","NORAD_CAT_ID":29,"ELEMENT_SET_NO":999,"REV_AT_EPOCH":52738,"BSTAR":0.00014778,"MEAN_MOTION_DOT":8.83e-6,"MEAN_MOTION_DDOT":0}]
